{
  "links" : {
    "next" : "https://api.nasa.gov/neo/rest/v1/feed?start_date=1999-10-23&end_date=1999-10-23&detailed=true&api_key=t0TVs3DtDT2H8Oy2Zy8m2eVrNsAVKAexjcZXUckd",
    "prev" : "https://api.nasa.gov/neo/rest/v1/feed?start_date=1999-10-21&end_date=1999-10-21&detailed=true&api_key=t0TVs3DtDT2H8Oy2Zy8m2eVrNsAVKAexjcZXUckd",
    "self" : "https://api.nasa.gov/neo/rest/v1/feed?start_date=1999-10-22&end_date=1999-10-22&detailed=true&api_key=t0TVs3DtDT2H8Oy2Zy8m2eVrNsAVKAexjcZXUckd"
  },
  "element_count" : 4,
  "near_earth_objects" : {
    "1999-10-22" : [ {
      "links" : {
        "self" : "https://api.nasa.gov/neo/rest/v1/neo/3092238?api_key=t0TVs3DtDT2H8Oy2Zy8m2eVrNsAVKAexjcZXUckd"
      },
      "neo_reference_id" : "3092238",
      "name" : "(1999 UZ5)",
      "nasa_jpl_url" : "http://ssd.jpl.nasa.gov/sbdb.cgi?sstr=3092238",
      "absolute_magnitude_h" : 21.866,
      "estimated_diameter" : {
        "kilometers" : {
          "estimated_diameter_min" : 0.1125524561,
          "estimated_diameter_max" : 0.2516749429
        },
        "meters" : {
          "estimated_diameter_min" : 112.5524561178,
          "estimated_diameter_max" : 251.6749429139
        },
        "miles" : {
          "estimated_diameter_min" : 0.0699368322,
          "estimated_diameter_max" : 0.156383511
        },
        "feet" : {
          "estimated_diameter_min" : 369.2666001294,
          "estimated_diameter_max" : 825.7052197097
        }
      },
      "is_potentially_hazardous_asteroid" : false,
      "close_approach_data" : [ {
        "close_approach_date" : "1999-10-22",
        "epoch_date_close_approach" : 940575600000,
        "relative_velocity" : {
          "kilometers_per_second" : "25.7366312892",
          "kilometers_per_hour" : "92651.8726411214",
          "miles_per_hour" : "57570.2705308124"
        },
        "miss_distance" : {
          "astronomical" : "0.069912964",
          "lunar" : "27.1961421967",
          "kilometers" : "10458830",
          "miles" : "6498816"
        },
        "orbiting_body" : "Earth"
      } ],
      "orbital_data" : {
        "orbit_id" : "12",
        "orbit_determination_date" : "2017-04-06 09:17:16",
        "orbit_uncertainty" : "9",
        "minimum_orbit_intersection" : ".0672335",
        "jupiter_tisserand_invariant" : "2.853",
        "epoch_osculation" : "2451484.5",
        "eccentricity" : ".7944884448959035",
        "semi_major_axis" : "2.588160641605116",
        "inclination" : "10.35572119704161",
        "ascending_node_longitude" : "228.689335630336",
        "orbital_period" : "1520.846104528295",
        "perihelion_distance" : ".5318969183154835",
        "perihelion_argument" : "64.65036271396603",
        "aphelion_distance" : "4.644424364894748",
        "perihelion_time" : "2451428.928454723843",
        "mean_anomaly" : "13.15435943179899",
        "mean_motion" : ".2367103409924948",
        "equinox" : "J2000"
      }
    }, {
      "links" : {
        "self" : "https://api.nasa.gov/neo/rest/v1/neo/2171576?api_key=t0TVs3DtDT2H8Oy2Zy8m2eVrNsAVKAexjcZXUckd"
      },
      "neo_reference_id" : "2171576",
      "name" : "171576 (1999 VP11)",
      "nasa_jpl_url" : "http://ssd.jpl.nasa.gov/sbdb.cgi?sstr=2171576",
      "absolute_magnitude_h" : 18.6,
      "estimated_diameter" : {
        "kilometers" : {
          "estimated_diameter_min" : 0.5064714588,
          "estimated_diameter_max" : 1.1325046106
        },
        "meters" : {
          "estimated_diameter_min" : 506.4714588346,
          "estimated_diameter_max" : 1132.5046106177
        },
        "miles" : {
          "estimated_diameter_min" : 0.3147066768,
          "estimated_diameter_max" : 0.7037055224
        },
        "feet" : {
          "estimated_diameter_min" : 1661.651821003,
          "estimated_diameter_max" : 3715.566426699
        }
      },
      "is_potentially_hazardous_asteroid" : true,
      "close_approach_data" : [ {
        "close_approach_date" : "1999-10-22",
        "epoch_date_close_approach" : 940575600000,
        "relative_velocity" : {
          "kilometers_per_second" : "13.3485793397",
          "kilometers_per_hour" : "48054.885623077",
          "miles_per_hour" : "29859.4371250725"
        },
        "miss_distance" : {
          "astronomical" : "0.3765652894",
          "lunar" : "146.4838867188",
          "kilometers" : "56333364",
          "miles" : "35003928"
        },
        "orbiting_body" : "Earth"
      } ],
      "orbital_data" : {
        "orbit_id" : "56",
        "orbit_determination_date" : "2017-04-06 09:26:00",
        "orbit_uncertainty" : "0",
        "minimum_orbit_intersection" : ".00191348",
        "jupiter_tisserand_invariant" : "5.507",
        "epoch_osculation" : "2458000.5",
        "eccentricity" : ".5835072232493942",
        "semi_major_axis" : "1.084332970583045",
        "inclination" : "17.29343429923236",
        "ascending_node_longitude" : "208.1209529266528",
        "orbital_period" : "412.4225676922918",
        "perihelion_distance" : ".4516168498403654",
        "perihelion_argument" : "61.59323134402725",
        "aphelion_distance" : "1.717049091325724",
        "perihelion_time" : "2457993.484075129331",
        "mean_anomaly" : "6.124138568782936",
        "mean_motion" : ".8728911272105647",
        "equinox" : "J2000"
      }
    }, {
      "links" : {
        "self" : "https://api.nasa.gov/neo/rest/v1/neo/3022975?api_key=t0TVs3DtDT2H8Oy2Zy8m2eVrNsAVKAexjcZXUckd"
      },
      "neo_reference_id" : "3022975",
      "name" : "(1999 UR)",
      "nasa_jpl_url" : "http://ssd.jpl.nasa.gov/sbdb.cgi?sstr=3022975",
      "absolute_magnitude_h" : 21.5,
      "estimated_diameter" : {
        "kilometers" : {
          "estimated_diameter_min" : 0.1332155667,
          "estimated_diameter_max" : 0.2978790628
        },
        "meters" : {
          "estimated_diameter_min" : 133.2155666981,
          "estimated_diameter_max" : 297.8790627982
        },
        "miles" : {
          "estimated_diameter_min" : 0.0827762899,
          "estimated_diameter_max" : 0.1850934111
        },
        "feet" : {
          "estimated_diameter_min" : 437.0589598459,
          "estimated_diameter_max" : 977.2935443908
        }
      },
      "is_potentially_hazardous_asteroid" : true,
      "close_approach_data" : [ {
        "close_approach_date" : "1999-10-22",
        "epoch_date_close_approach" : 940575600000,
        "relative_velocity" : {
          "kilometers_per_second" : "9.9963232067",
          "kilometers_per_hour" : "35986.7635440803",
          "miles_per_hour" : "22360.7753810426"
        },
        "miss_distance" : {
          "astronomical" : "0.0472189242",
          "lunar" : "18.3681602478",
          "kilometers" : "7063850.5",
          "miles" : "4389273"
        },
        "orbiting_body" : "Earth"
      } ],
      "orbital_data" : {
        "orbit_id" : "16",
        "orbit_determination_date" : "2017-04-06 09:17:16",
        "orbit_uncertainty" : "0",
        "minimum_orbit_intersection" : ".0146615",
        "jupiter_tisserand_invariant" : "3.782",
        "epoch_osculation" : "2458000.5",
        "eccentricity" : ".5046377834864857",
        "semi_major_axis" : "1.898364717680468",
        "inclination" : "3.600500046663705",
        "ascending_node_longitude" : "50.72973308650449",
        "orbital_period" : "955.3618775260077",
        "perihelion_distance" : ".9403781543012485",
        "perihelion_argument" : "18.03011211459189",
        "aphelion_distance" : "2.856351281059688",
        "perihelion_time" : "2458190.990216364127",
        "mean_anomaly" : "288.2193695349554",
        "mean_motion" : ".3768205624158368",
        "equinox" : "J2000"
      }
    }, {
      "links" : {
        "self" : "https://api.nasa.gov/neo/rest/v1/neo/3354740?api_key=t0TVs3DtDT2H8Oy2Zy8m2eVrNsAVKAexjcZXUckd"
      },
      "neo_reference_id" : "3354740",
      "name" : "(2006 UL185)",
      "nasa_jpl_url" : "http://ssd.jpl.nasa.gov/sbdb.cgi?sstr=3354740",
      "absolute_magnitude_h" : 21.2,
      "estimated_diameter" : {
        "kilometers" : {
          "estimated_diameter_min" : 0.1529519353,
          "estimated_diameter_max" : 0.3420109247
        },
        "meters" : {
          "estimated_diameter_min" : 152.9519353442,
          "estimated_diameter_max" : 342.0109247198
        },
        "miles" : {
          "estimated_diameter_min" : 0.095039897,
          "estimated_diameter_max" : 0.2125156703
        },
        "feet" : {
          "estimated_diameter_min" : 501.8108275547,
          "estimated_diameter_max" : 1122.0831222578
        }
      },
      "is_potentially_hazardous_asteroid" : false,
      "close_approach_data" : [ {
        "close_approach_date" : "1999-10-22",
        "epoch_date_close_approach" : 940575600000,
        "relative_velocity" : {
          "kilometers_per_second" : "13.864646513",
          "kilometers_per_hour" : "49912.7274467892",
          "miles_per_hour" : "31013.827784923"
        },
        "miss_distance" : {
          "astronomical" : "0.2484352015",
          "lunar" : "96.6412887573",
          "kilometers" : "37165376",
          "miles" : "23093494"
        },
        "orbiting_body" : "Earth"
      } ],
      "orbital_data" : {
        "orbit_id" : "20",
        "orbit_determination_date" : "2017-04-06 09:07:45",
        "orbit_uncertainty" : "1",
        "minimum_orbit_intersection" : ".203793",
        "jupiter_tisserand_invariant" : "6.822",
        "epoch_osculation" : "2458000.5",
        "eccentricity" : ".5018795991076195",
        "semi_major_axis" : ".8440307778414696",
        "inclination" : "19.43556818077484",
        "ascending_node_longitude" : "52.30582221783192",
        "orbital_period" : "283.2277826029085",
        "perihelion_distance" : ".4204289494239006",
        "perihelion_argument" : "177.3013991822681",
        "aphelion_distance" : "1.267632606259039",
        "perihelion_time" : "2457885.924573962349",
        "mean_anomaly" : "145.6324411203109",
        "mean_motion" : "1.2710617464556",
        "equinox" : "J2000"
      }
    } ]
  }
}